[
    {
        "Altitude(m)": 711616.0967328149,
        "Argument of Periapsis(deg)": 0.011390121186627068,
        "Eccentricity": 0.0,
        "Inclination(deg)": 45.0,
        "Latitude(deg)": -29.753497599783753,
        "Longitude(deg)": -151.12415157021027,
        "Mean Anomaly(deg)": 224.26051664748087,
        "RAAN(deg)": 94.9892480585418,
        "Satellite Name": "Constellation 1 431",
        "Satellite Number": 431,
        "Semi-Major Axis(m)": 7083131.272910544,
        "Time(s)": 190
    },
    {
        "Altitude(m)": 711629.7952015224,
        "Argument of Periapsis(deg)": 0.011450069192872472,
        "Eccentricity": 0.0,
        "Inclination(deg)": 45.0,
        "Latitude(deg)": -29.788890079645185,
        "Longitude(deg)": -151.07157193078046,
        "Mean Anomaly(deg)": 224.3212177877307,
        "RAAN(deg)": 94.98919146937624,
        "Satellite Name": "Constellation 1 431",
        "Satellite Number": 431,
        "Semi-Major Axis(m)": 7083131.272910544,
        "Time(s)": 191
    },
    {
        "Altitude(m)": 711643.4898757698,
        "Argument of Periapsis(deg)": 0.01151001719911788,
        "Eccentricity": 0.0,
        "Inclination(deg)": 45.0,
        "Latitude(deg)": -29.82425797698999,
        "Longitude(deg)": -151.01895255272197,
        "Mean Anomaly(deg)": 224.38191892798062,
        "RAAN(deg)": 94.98913488021067,
        "Satellite Name": "Constellation 1 431",
        "Satellite Number": 431,
        "Semi-Major Axis(m)": 7083131.272910544,
        "Time(s)": 192
    },
    {
        "Altitude(m)": 711657.1807075499,
        "Argument of Periapsis(deg)": 0.011569965205363285,
        "Eccentricity": 0.0,
        "Inclination(deg)": 45.0,
        "Latitude(deg)": -29.85960124038935,
        "Longitude(deg)": -150.9662935466919,
        "Mean Anomaly(deg)": 224.44262006823055,
        "RAAN(deg)": 94.9890782910451,
        "Satellite Name": "Constellation 1 431",
        "Satellite Number": 431,
        "Semi-Major Axis(m)": 7083131.272910544,
        "Time(s)": 193
    },
    {
        "Altitude(m)": 711670.8676488614,
        "Argument of Periapsis(deg)": 0.01162991321160869,
        "Eccentricity": 0.0,
        "Inclination(deg)": 45.0,
        "Latitude(deg)": -29.894919818343972,
        "Longitude(deg)": -150.9135945191106,
        "Mean Anomaly(deg)": 224.50332120848043,
        "RAAN(deg)": 94.98902170187952,
        "Satellite Name": "Constellation 1 431",
        "Satellite Number": 431,
        "Semi-Major Axis(m)": 7083131.272910544,
        "Time(s)": 194
    },
    {
        "Altitude(m)": 711684.5506517099,
        "Argument of Periapsis(deg)": 0.011689861217854095,
        "Eccentricity": 0.0,
        "Inclination(deg)": 45.0,
        "Latitude(deg)": -29.93021365928208,
        "Longitude(deg)": -150.86085558074538,
        "Mean Anomaly(deg)": 224.56402234873033,
        "RAAN(deg)": 94.98896511271396,
        "Satellite Name": "Constellation 1 431",
        "Satellite Number": 431,
        "Semi-Major Axis(m)": 7083131.272910544,
        "Time(s)": 195
    },
    {
        "Altitude(m)": 711698.2296681016,
        "Argument of Periapsis(deg)": 0.0117498092240995,
        "Eccentricity": 0.0,
        "Inclination(deg)": 45.0,
        "Latitude(deg)": -29.965482711560732,
        "Longitude(deg)": -150.80807667432242,
        "Mean Anomaly(deg)": 224.62472348898018,
        "RAAN(deg)": 94.98890852354837,
        "Satellite Name": "Constellation 1 431",
        "Satellite Number": 431,
        "Semi-Major Axis(m)": 7083131.272910544,
        "Time(s)": 196
    },
    {
        "Altitude(m)": 711711.9046500459,
        "Argument of Periapsis(deg)": 0.011809757230344905,
        "Eccentricity": 0.0,
        "Inclination(deg)": 45.0,
        "Latitude(deg)": -30.000726923465418,
        "Longitude(deg)": -150.7552577426248,
        "Mean Anomaly(deg)": 224.68542462923014,
        "RAAN(deg)": 94.98885193438282,
        "Satellite Name": "Constellation 1 431",
        "Satellite Number": 431,
        "Semi-Major Axis(m)": 7083131.272910544,
        "Time(s)": 197
    },
    {
        "Altitude(m)": 711725.575549566,
        "Argument of Periapsis(deg)": 0.011869705236590313,
        "Eccentricity": 0.0,
        "Inclination(deg)": 45.0,
        "Latitude(deg)": -30.035946243209857,
        "Longitude(deg)": -150.7023987284931,
        "Mean Anomaly(deg)": 224.74612576948005,
        "RAAN(deg)": 94.98879534521726,
        "Satellite Name": "Constellation 1 431",
        "Satellite Number": 431,
        "Semi-Major Axis(m)": 7083131.272910544,
        "Time(s)": 198
    },
    {
        "Altitude(m)": 711739.2423186783,
        "Argument of Periapsis(deg)": 0.011929653242835719,
        "Eccentricity": 0.0,
        "Inclination(deg)": 45.0,
        "Latitude(deg)": -30.07114061893628,
        "Longitude(deg)": -150.64949957482582,
        "Mean Anomaly(deg)": 224.8068269097299,
        "RAAN(deg)": 94.98873875605167,
        "Satellite Name": "Constellation 1 431",
        "Satellite Number": 431,
        "Semi-Major Axis(m)": 7083131.272910544,
        "Time(s)": 199
    }
]